STARLINK-33765          
1 63473U 25070P   26201.34887897  .00011684  00000+0  43329-3 0  9995
2 63473  42.9996 230.7238 0001849 286.9958  73.0691 15.27591022 73266
STARLINK-33735          
1 63474U 25070Q   26201.39628427  .00005616  00000+0  21343-3 0  9993
2 63474  43.0001 230.2087 0000351 314.6094  45.4729 15.27579824 73272
STARLINK-33731          
1 63475U 25070R   26201.43610956  .00011310  00000+0  41977-3 0  9990
2 63475  42.9968 230.5151 0001603 279.4732  80.5939 15.27587707 73278
STARLINK-33718          
1 63476U 25070S   26201.44880019  .00012707  00000+0  47006-3 0  9991
2 63476  42.9950 229.7411 0000726 270.5018  89.5751 15.27609819 73284
STARLINK-33630          
1 63477U 25070T   26200.80956558  .00006859  00000+0  25849-3 0  9995
2 63477  43.0015 230.0746 0001938 279.0745  80.9888 15.27585143 73225
STARLINK-33695          
1 63478U 25070U   26201.45057825  .00005646  00000+0  21447-3 0  9990
2 63478  43.0019 226.2788 0001511 278.8321  81.2359 15.27588524 73321
STARLINK-33713          
1 63479U 25070V   26201.12750066  .00006022  00000+0  22813-3 0  9999
2 63479  43.0033 228.1539 0001865 286.6236  73.4411 15.27584653 73272
STARLINK-33721          
1 63480U 25070W   26200.14927563  .00007703  00000+0  28909-3 0  9999
2 63480  42.9992 233.7152 0001680 278.8652  81.2010 15.27585599 73125
STARLINK-33639          
1 63481U 25070X   26201.47629341  .00014239  00000+0  52563-3 0  9995
2 63481  43.0013 226.4724 0001934 284.5420  75.5217 15.27599586 73323
STARLINK-33688          
1 63483U 25070Z   26201.35272840  .00006780  00000+0  25561-3 0  9992
2 63483  43.0015 230.7352 0002421 286.2498  73.8087 15.27589951 73262
STARLINK-33700          
1 63484U 25070AA  26201.39884307  .00006735  00000+0  25398-3 0  9992
2 63484  43.0019 230.2155 0001557 278.6229  81.4446 15.27590012 73274
STARLINK-33687          
1 63485U 25070AB  26201.38727041  .00006158  00000+0  23307-3 0  9990
2 63485  42.9984 230.0838 0001492 283.8261  76.2425 15.27584774 73279
STARLINK-33716          
1 63486U 25070AC  26201.45780634  .00004558  00000+0  17503-3 0  9999
2 63486  43.0009 229.8098 0001357 275.8785  84.1912 15.27585193 73282
STARLINK-33754          
1 63487U 25070AD  26201.47834551  .00001344  00000+0  58369-4 0  9996
2 63487  43.0007 229.9579 0002277 262.8449  97.2144 15.27587308 73283
POSAT-2                 
1 63488U 25009DR  26201.58015084  .00006913  00000+0  38743-3 0  9993
2 63488  97.4829 276.0316 0006137  48.5679 311.6079 15.13693097 71695
HERMES-6                
1 63489U 25052BK  26201.51170567  .00003044  00000+0  13055-3 0  9994
2 63489  97.3961  93.5222 0007899  61.9514 298.2521 15.23467951 74901
STARLINK-33828          
1 63493U 25071A   26201.40459809  .00007524  00000+0  22631-3 0  9994
2 63493  53.1586 240.3298 0001066  72.1346 287.9773 15.35408402 73116
STARLINK-33819          
1 63494U 25071B   26201.33717054  .00004586  00000+0  14680-3 0  9996
2 63494  53.1568 240.6102 0001075  93.6437 266.4689 15.34396788 73102
STARLINK-33845          
1 63495U 25071C   26201.35414281  .00003641  00000+0  13499-3 0  9993
2 63495  53.1573 243.5555 0001107 102.0534 258.0591 15.30197135 73067
STARLINK-33829          
1 63496U 25071D   26201.33076875  .00006818  00000+0  23118-3 0  9993
2 63496  53.1569 243.4116 0000988  82.3288 277.7825 15.31712745 73022
STARLINK-33815          
1 63497U 25071E   26201.39135340  .00008710  00000+0  29208-3 0  9992
2 63497  53.1575 243.0802 0001056  87.0275 273.0847 15.31704371 73099
STARLINK-33833          
1 63498U 25071F   26201.33543512  .00004904  00000+0  16962-3 0  9995
2 63498  53.1576 243.4380 0001108  79.4120 280.7007 15.31709804 73086
STARLINK-33534          
1 63499U 25071G   26201.48918031  .00004279  00000+0  14956-3 0  9990
2 63499  53.1576 242.2684 0001296  65.3487 294.7650 15.31703774 73099
STARLINK-33838          
1 63500U 25071H   26201.35836470  .00001903  00000+0  76372-4 0  9997
2 63500  53.1587 243.5746 0001532  73.7034 286.4135 15.30196324 72878
STARLINK-33837          
1 63501U 25071J   26201.34010421  .00003897  00000+0  13727-3 0  9995
2 63501  53.1567 243.4687 0000897  78.0747 282.0355 15.31702802 73021
STARLINK-33818          
1 63502U 25071K   26201.48582691  .00004985  00000+0  18032-3 0  9997
2 63502  53.1577 242.9480 0001150  79.8030 280.3100 15.30198497 73101
STARLINK-33583          
1 63503U 25071L   26201.48371263  .00008120  00000+0  25122-3 0  9992
2 63503  53.1600 237.9465 0001087  62.9175 297.1939 15.34395495 73172
STARLINK-33811          
1 63504U 25071M   26201.38598139  .00089539  00000+0  26348-2 0  9998
2 63504  53.1596 243.7506 0001489  57.2405 302.8741 15.34339407 73027
STARLINK-33825          
1 63505U 25071N   26201.34569950  .00002692  00000+0  10300-3 0  9991
2 63505  53.1568 243.4975 0001078  89.0158 271.0967 15.30197424 73086
STARLINK-33792          
1 63506U 25071P   26201.58335648  .00051063  00000+0  17265-2 0  9995
2 63506  53.1560 242.4423 0000845  87.8642 118.8645 15.30160075  5865
