OBJECT_NAME,OBJECT_ID,EPOCH,MEAN_MOTION,ECCENTRICITY,INCLINATION,RA_OF_ASC_NODE,ARG_OF_PERICENTER,MEAN_ANOMALY,EPHEMERIS_TYPE,CLASSIFICATION_TYPE,NORAD_CAT_ID,ELEMENT_SET_NO,REV_AT_EPOCH,BSTAR,MEAN_MOTION_DOT,MEAN_MOTION_DDOT
STARLINK-33765,2025-070P,2026-07-20T08:22:23.143008,15.27591022,.00018494,42.9996,230.7238,286.9958,73.0691,0,U,63473,999,7326,.433289E-3,.11684E-3,0
STARLINK-33735,2025-070Q,2026-07-20T09:30:38.960928,15.27579824,.00003514,43.0001,230.2087,314.6094,45.4729,0,U,63474,999,7327,.2134278E-3,.5616E-4,0
STARLINK-33731,2025-070R,2026-07-20T10:27:59.865984,15.27587707,.0001603,42.9968,230.5151,279.4732,80.5939,0,U,63475,999,7327,.41976747E-3,.1131E-3,0
STARLINK-33718,2025-070S,2026-07-20T10:46:16.336416,15.27609819,.00007264,42.9950,229.7411,270.5018,89.5751,0,U,63476,999,7328,.47006446E-3,.12707E-3,0
STARLINK-33630,2025-070T,2026-07-19T19:25:46.466112,15.27585143,.00019385,43.0015,230.0746,279.0745,80.9888,0,U,63477,999,7322,.25849403E-3,.6859E-4,0
STARLINK-33695,2025-070U,2026-07-20T10:48:49.960800,15.27588524,.0001511,43.0019,226.2788,278.8321,81.2359,0,U,63478,999,7332,.21447217E-3,.5646E-4,0
STARLINK-33713,2025-070V,2026-07-20T03:03:36.057024,15.27584653,.00018651,43.0033,228.1539,286.6236,73.4411,0,U,63479,999,7327,.22813296E-3,.6022E-4,0
STARLINK-33721,2025-070W,2026-07-19T03:34:57.414432,15.27585599,.00016804,42.9992,233.7152,278.8652,81.2010,0,U,63480,999,7312,.28908672E-3,.7703E-4,0
STARLINK-33639,2025-070X,2026-07-20T11:25:51.750624,15.27599586,.0001934,43.0013,226.4724,284.5420,75.5217,0,U,63481,999,7332,.52562646E-3,.14239E-3,0
STARLINK-33688,2025-070Z,2026-07-20T08:27:55.733760,15.27589951,.00024218,43.0015,230.7352,286.2498,73.8087,0,U,63483,999,7326,.25560629E-3,.678E-4,0
STARLINK-33700,2025-070AA,2026-07-20T09:34:20.041248,15.27590012,.00015577,43.0019,230.2155,278.6229,81.4446,0,U,63484,999,7327,.25397849E-3,.6735E-4,0
STARLINK-33687,2025-070AB,2026-07-20T09:17:40.163424,15.27584774,.00014929,42.9984,230.0838,283.8261,76.2425,0,U,63485,999,7327,.23306577E-3,.6158E-4,0
STARLINK-33716,2025-070AC,2026-07-20T10:59:14.467776,15.27585193,.00013572,43.0009,229.8098,275.8785,84.1912,0,U,63486,999,7328,.17502827E-3,.4558E-4,0
STARLINK-33754,2025-070AD,2026-07-20T11:28:49.052064,15.27587308,.00022772,43.0007,229.9579,262.8449,97.2144,0,U,63487,999,7328,.58368684E-4,.1344E-4,0
POSAT-2,2025-009DR,2026-07-20T13:55:25.032576,15.13693097,.00061378,97.4829,276.0316,48.5679,311.6079,0,U,63488,999,7169,.38743099E-3,.6913E-4,0
HERMES-6,2025-052BK,2026-07-20T12:16:51.369888,15.23467951,.00078996,97.3961,93.5222,61.9514,298.2521,0,U,63489,999,7490,.13054628E-3,.3044E-4,0
STARLINK-33828,2025-071A,2026-07-20T09:42:37.274976,15.35408402,.00010662,53.1586,240.3298,72.1346,287.9773,0,U,63493,999,7311,.22631478E-3,.7524E-4,0
STARLINK-33819,2025-071B,2026-07-20T08:05:31.534656,15.34396788,.00010759,53.1568,240.6102,93.6437,266.4689,0,U,63494,999,7310,.14679703E-3,.4586E-4,0
STARLINK-33845,2025-071C,2026-07-20T08:29:57.938784,15.30197135,.00011072,53.1573,243.5555,102.0534,258.0591,0,U,63495,999,7306,.13499155E-3,.3641E-4,0
STARLINK-33829,2025-071D,2026-07-20T07:56:18.420000,15.31712745,.00009885,53.1569,243.4116,82.3288,277.7825,0,U,63496,999,7302,.23117771E-3,.6818E-4,0
STARLINK-33815,2025-071E,2026-07-20T09:23:32.933760,15.31704371,.0001056,53.1575,243.0802,87.0275,273.0847,0,U,63497,999,7309,.29207674E-3,.871E-4,0
STARLINK-33833,2025-071F,2026-07-20T08:03:01.594368,15.31709804,.00011089,53.1576,243.4380,79.4120,280.7007,0,U,63498,999,7308,.16962264E-3,.4904E-4,0
STARLINK-33534,2025-071G,2026-07-20T11:44:25.178784,15.31703774,.00012964,53.1576,242.2684,65.3487,294.7650,0,U,63499,999,7309,.14956457E-3,.4279E-4,0
STARLINK-33838,2025-071H,2026-07-20T08:36:02.710080,15.30196324,.00015323,53.1587,243.5746,73.7034,286.4135,0,U,63500,999,7287,.76372014E-4,.1903E-4,0
STARLINK-33837,2025-071J,2026-07-20T08:09:45.003744,15.31702802,.00008978,53.1567,243.4687,78.0747,282.0355,0,U,63501,999,7302,.13726633E-3,.3897E-4,0
STARLINK-33818,2025-071K,2026-07-20T11:39:35.445024,15.30198497,.00011506,53.1577,242.9480,79.8030,280.3100,0,U,63502,999,7310,.18032121E-3,.4985E-4,0
STARLINK-33583,2025-071L,2026-07-20T11:36:32.771232,15.34395495,.00010872,53.1600,237.9465,62.9175,297.1939,0,U,63503,999,7317,.25122261E-3,.812E-4,0
STARLINK-33811,2025-071M,2026-07-20T09:15:48.792096,15.34339407,.00014892,53.1596,243.7506,57.2405,302.8741,0,U,63504,999,7302,.2634771E-2,.89539E-3,0
STARLINK-33825,2025-071N,2026-07-20T08:17:48.436800,15.30197424,.00010788,53.1568,243.4975,89.0158,271.0967,0,U,63505,999,7308,.1029965E-3,.2692E-4,0
STARLINK-33792,2025-071P,2026-07-20T14:00:01.999872,15.30160075,.00008456,53.1560,242.4423,87.8642,118.8645,0,U,63506,999,586,.17265046E-2,.51063E-3,0
